#aV2011  1  6  0  0   .00000000      96 DD+AD WGS84 FIT  NGA
## 1617 345600.00000000   900.00000000 55567  .0000000000000
+   32     1  2  3  4  5  6  7  8  9 10 11 12 13 14 15 16 17
+         18 19 20 21 22 23 24 25 26 27 28 29 30 31 32  0  0
+          0  0  0  0  0  0  0  0  0  0  0  0  0  0  0  0  0
+          0  0  0  0  0  0  0  0  0  0  0  0  0  0  0  0  0
+          0  0  0  0  0  0  0  0  0  0  0  0  0  0  0  0  0
++         0  0  0  0  0  0  0  0  0  0  0  0  0  0  0  0  0
++         0  0  0  0  0  0  0  0  0  0  0  0  0  0  0  0  0
++         0  0  0  0  0  0  0  0  0  0  0  0  0  0  0  0  0
++         0  0  0  0  0  0  0  0  0  0  0  0  0  0  0  0  0
++         0  0  0  0  0  0  0  0  0  0  0  0  0  0  0  0  0
%c cc cc ccc ccc cccc cccc cccc cccc ccccc ccccc ccccc ccccc
%c cc cc ccc ccc cccc cccc cccc cccc ccccc ccccc ccccc ccccc
%f  0.0000000  0.000000000  0.00000000000  0.000000000000000
%f  0.0000000  0.000000000  0.00000000000  0.000000000000000
%i    0    0    0    0      0      0      0      0         0
%i    0    0    0    0      0      0      0      0         0
/*      NGA, ST. LOUIS,MO.                                  
/*   EPHEMERIS COMPUTED FROM  3 DAYS OF DATA                
/* CCCCCCCCCCCCCCCCCCCCCCCCCCCCCCCCCCCCCCCCCCCCCCCCCCCCCCCCC
/* CCCCCCCCCCCCCCCCCCCCCCCCCCCCCCCCCCCCCCCCCCCCCCCCCCCCCCCCC
*  2011  1  6 13 45   .00000000                                                 
P  1  -2499.349530  22134.735878 -14476.507643   -197.773727                    
V  1 -11622.639401  14185.497988  24007.152569      -.032505                    
P  2 -13270.039641 -23279.232449  -1198.902034    313.116581                    
V  2   2029.546146  -2787.027097  30902.331949       .022323                    
P  3  17398.681915  11530.114527 -17007.055492    658.846840                    
V  3 -20619.493524   3500.007055 -18856.030523       .051102                    
P  4  -5244.650708 -24320.985811   8566.691801      1.576937                    
V  4   8288.922299   8474.080174  28810.031619       .099254                    
P  5  -8660.160245 -13836.472347 -20949.849490    -94.613143                    
V  5  15177.640588 -21862.032813   8273.182043      -.059515                    
P  6  12971.665624  13727.185034 -18586.650193    375.969938                    
V  6 -23959.267180   1654.081172 -15175.146051      -.058802                    
P  7  10566.040035 -11510.411934 -21443.094111      1.403579                    
V  7  12693.261670  24105.820226  -6877.646316       .005818                    
P  8   3163.091182 -20357.300028 -16419.220222      7.132143                    
V  8   9386.461061  18887.393521 -22112.838275       .000426                    
P  9 -17720.264389  -8749.377123  17209.270270     53.605349                    
V  9  -9513.200207 -20853.064022 -19769.255669       .024996                    
P 10   4166.466598 -22645.826478 -13107.795424    -62.464978                    
V 10  11545.981193 -12071.452192  25280.588518      -.010936                    
P 11  20829.883827   4407.776555  15764.396228   -117.130946                    
V 11  11239.097444  17686.181689 -19056.988104      -.029831                    
P 12 -17482.991044   1743.612021  19902.905059    -38.185539                    
V 12  13169.686119 -21523.596648  13629.891776       .033584                    
P 13  21882.351338  -6268.116476 -13860.314261    286.771077                    
V 13  16972.866826   3619.700618  25362.521140      -.012087                    
P 14  -4835.105668  14214.502098  22055.846766    121.642970                    
V 14 -27376.622961  -3262.523176  -4055.874259       .030123                    
P 15 -26237.306447  -3294.263471  -3279.124662   -164.041625                    
V 15   4271.851365  -2783.778594 -31087.797722       .039615                    
P 16   4684.801855  16834.334684 -19882.570806   -140.496168                    
V 16 -15477.394263  20128.951633  13650.083592      -.030662                    
P 17   6670.160535 -14428.465067  21363.298099    181.165163                    
V 17  26744.558216   2863.467396  -6673.769605       .006945                    
P 18 -16668.671750  20088.164544  -3373.010541    114.440312                    
V 18   -620.872070  -6110.868224 -31007.501989       .021117                    
P 19  24549.189224   8146.671307  -6751.084808    -98.966116                    
V 19  -8761.203711   1306.963539 -29939.633786      -.035624                    
P 20  18908.535580  -6699.638024  17231.027365     48.853735                    
V 20  -9610.003947  20211.404563  18318.726806      -.000871                    
P 21 -10540.010411  12740.600715 -20296.549852   -114.732699                    
V 21 -13087.609858 -23498.284691  -8428.878007      -.027276                    
P 22  -9513.131871  23647.150727   7462.706668    155.560895                    
V 22  -8183.159285   5690.497853 -29204.585789      -.008110                    
P 23  26592.066170   -232.041874  -2824.241022    333.798686                    
V 23   3389.001689   2571.305049  31389.813218      -.022339                    
P 24  17685.301380   6460.117322  18894.502103    354.241806                    
V 24   8330.473553  22357.501601 -15231.458951       .031828                    
P 25 -18635.067191  15703.403915  10552.525842    -62.128686                    
V 25   5126.113899 -12635.420425  27813.600422      -.020805                    
P 26 -18694.770783 -12402.976986 -15114.839638    -89.721018                    
V 26  17945.159031   1299.641363 -23783.910792      -.089917                    
P 27 -18599.990072 -13789.988239  13924.098596    224.270456                    
V 27  -6940.364670 -14937.490016 -25057.608441       .038287                    
P 28  12191.191644 -22998.239312   4959.882466     13.163133                    
V 28   5372.982309  -3177.793287 -31383.384240       .020682                    
P 29 -23272.316003   5809.835322 -11285.890422    176.075811                    
V 29 -14184.861650  -3735.607385  27174.717713       .028353                    
P 30  -2085.379113  22751.635002 -13993.295269    311.162590                    
V 30 -10492.123309  13597.731620  24422.509434       .031108                    
P 31   6721.756406  24578.462029   7332.961234     26.719495                    
V 31  -6049.061938  -7105.554979  30435.749344       .041959                    
P 32  15956.238288   3786.600397  21121.149133   -169.291311                    
V 32 -15465.233715  21196.217388   8389.629634      -.080770                    
EOF
